{
  "norad_id": 55605,
  "name": "STARLINK-5725",
  "history": [
    {
      "epoch": "2026-03-28T22:00:01.999584Z",
      "apogee_km": 492.9151969584691,
      "perigee_km": 490.1316105628657,
      "latitude_deg": -35.14391025907028,
      "longitude_deg": 40.46142893589239,
      "height_km": 500.4360582813475,
      "semi_major_axis_km": 6869.660403760668,
      "eccentricity": 0.0002026,
      "inclination_deg": 42.9996,
      "raan_deg": 245.4555,
      "arg_perigee_deg": 268.3249,
      "mean_anomaly_deg": 34.4815,
      "mean_motion_rev_day": 15.24754273
    },
    {
      "epoch": "2026-03-29T04:00:01.999584Z",
      "apogee_km": 491.8986225177441,
      "perigee_km": 489.4038786251367,
      "latitude_deg": -34.98799960029252,
      "longitude_deg": -134.25621710223723,
      "height_km": 499.49794170620714,
      "semi_major_axis_km": 6868.788250571441,
      "eccentricity": 0.0001816,
      "inclination_deg": 42.9992,
      "raan_deg": 244.0468,
      "arg_perigee_deg": 259.6476,
      "mean_anomaly_deg": 337.1969,
      "mean_motion_rev_day": 15.25044687
    },
    {
      "epoch": "2026-03-30T04:00:01.999584Z",
      "apogee_km": 487.49667816218516,
      "perigee_km": 485.1064806488366,
      "latitude_deg": -16.743648888485257,
      "longitude_deg": -27.8689657213367,
      "height_km": 489.405410532082,
      "semi_major_axis_km": 6864.438579405511,
      "eccentricity": 0.0001741,
      "inclination_deg": 42.9992,
      "raan_deg": 238.4157,
      "arg_perigee_deg": 260.4042,
      "mean_anomaly_deg": 74.8106,
      "mean_motion_rev_day": 15.2649444
    }
  ]
}